{
    "links": {
        "self": "http://www.neowsapp.com/rest/v1/neo/3843897?api_key=iIulBulltgU6a56xZRHN4H3l9WmuAYTsLGpBGhQ2"
    },
    "id": "3843897",
    "neo_reference_id": "3843897",
    "name": "(2019 SW)",
    "designation": "2019 SW",
    "nasa_jpl_url": "http://ssd.jpl.nasa.gov/sbdb.cgi?sstr=3843897",
    "absolute_magnitude_h": 24.5,
    "estimated_diameter": {
        "kilometers": {
            "estimated_diameter_min": 0.0334622374,
            "estimated_diameter_max": 0.0748238376
        },
        "meters": {
            "estimated_diameter_min": 33.4622374455,
            "estimated_diameter_max": 74.8238376074
        },
        "miles": {
            "estimated_diameter_min": 0.0207924639,
            "estimated_diameter_max": 0.0464933628
        },
        "feet": {
            "estimated_diameter_min": 109.7842471007,
            "estimated_diameter_max": 245.4850393757
        }
    },
    "is_potentially_hazardous_asteroid": false,
    "close_approach_data": [
        {
            "close_approach_date": "2019-09-13",
            "close_approach_date_full": "2019-Sep-13 04:45",
            "epoch_date_close_approach": 1568349900000,
            "relative_velocity": {
                "kilometers_per_second": "10.297705403",
                "kilometers_per_hour": "37071.7394506344",
                "miles_per_hour": "23034.9372158678"
            },
            "miss_distance": {
                "astronomical": "0.0315360865",
                "lunar": "12.2675376485",
                "kilometers": "4717731.368535755",
                "miles": "2931462.338693219"
            },
            "orbiting_body": "Earth"
        }
    ],
    "orbital_data": {
        "orbit_id": "7",
        "orbit_determination_date": "2019-10-10 08:22:25",
        "first_observation_date": "2019-09-19",
        "last_observation_date": "2019-10-09",
        "data_arc_in_days": 20,
        "observations_used": 75,
        "orbit_uncertainty": "7",
        "minimum_orbit_intersection": ".0248108",
        "jupiter_tisserand_invariant": "3.803",
        "epoch_osculation": "2459000.5",
        "eccentricity": ".5006825535219701",
        "semi_major_axis": "1.883644135247383",
        "inclination": "2.893497584506818",
        "ascending_node_longitude": "317.6518266426986",
        "orbital_period": "944.2711335973167",
        "perihelion_distance": ".9405363796850402",
        "perihelion_argument": "353.4496483775499",
        "aphelion_distance": "2.826751890809727",
        "perihelion_time": "2458709.660497523127",
        "mean_anomaly": "110.8815224423927",
        "mean_motion": ".3812464314444685",
        "equinox": "J2000",
        "orbit_class": {
            "orbit_class_type": "APO",
            "orbit_class_description": "Near-Earth asteroid orbits which cross the Earth’s orbit similar to that of 1862 Apollo",
            "orbit_class_range": "a (semi-major axis) > 1.0 AU; q (perihelion) < 1.017 AU"
        }
    },
    "is_sentry_object": false
}